OBJECT_NAME,OBJECT_ID,EPOCH,MEAN_MOTION,ECCENTRICITY,INCLINATION,RA_OF_ASC_NODE,ARG_OF_PERICENTER,MEAN_ANOMALY,EPHEMERIS_TYPE,CLASSIFICATION_TYPE,NORAD_CAT_ID,ELEMENT_SET_NO,REV_AT_EPOCH,BSTAR,MEAN_MOTION_DOT,MEAN_MOTION_DDOT
GEOSCAN 3 (RS92S3),2025-155T,2026-07-12T19:09:32.010624,15.36256437,.0008643,97.4543,163.9913,93.5971,266.6261,0,U,64893,999,8478,.39222E-3,.13804E-3,0
INNOSAT 3 (RS92S0),2025-155U,2026-07-12T20:02:02.457888,15.45697469,.0008325,97.4486,165.9817,96.0892,264.1306,0,U,64894,999,8492,.65494E-3,.31652E-3,0
KNACKSAT-2,1998-067XZ,2026-07-12T10:39:42.222816,15.62203060,.00081528,51.6258,167.2182,318.8485,41.1893,0,U,67683,999,2422,.37969135E-3,.33729E-3,0
