GEOSCAN-3 (RS92S3)
1 64893U 25155T   26193.79828716  .00013804  00000-0  39222-3 0  9994
2 64893  97.4543 163.9913 0008643  93.5971 266.6261 15.36256437 84789
INNOSAT3 (RS92S0)
1 64894U 25155U   26193.83475067  .00031652  00000-0  65494-3 0  9998
2 64894  97.4486 165.9817 0008325  96.0892 264.1306 15.45697469 84921
KNACKSAT-2
1 67683U 98067XZ  26193.44423869  .00033729  00000-0  37969-3 0  9992
2 67683  51.6258 167.2182 0008153 318.8485  41.1893 15.62203060 24221
